{"type": "FeatureCollection", "features": [ {"type": "Feature", "properties": {"norad_id": 37216, "name": "COSMO-SKYMED 4", "group": "resource", "lat": -75.27401301367044, "lon": -52.03431614069746, "alt_km": 630.8394488319891, "timestamp": "2025-12-04T07:39:35.827259+00:00", "meta": {"OBJECT_NAME": "COSMO-SKYMED 4", "OBJECT_ID": "2010-060A", "EPOCH": "2025-12-03T22:24:01.371744", "MEAN_MOTION": 14.82151203, "ECCENTRICITY": 0.00013953, "INCLINATION": 97.8808, "RA_OF_ASC_NODE": 159.3893, "ARG_OF_PERICENTER": 83.5232, "MEAN_ANOMALY": 276.614, "EPHEMERIS_TYPE": 0, "CLASSIFICATION_TYPE": "U", "NORAD_CAT_ID": 37216, "ELEMENT_SET_NO": 999, "REV_AT_EPOCH": 81564, "BSTAR": 0.00013009198, "MEAN_MOTION_DOT": 9.84e-06, "MEAN_MOTION_DDOT": 0}, "tle": {"line1": "1 37216U 10060A   25337.93334921  .00000984  00000+0  13009-3 0  9996", "line2": "2 37216  97.8808 159.3893 0001395  83.5232 276.6140 14.82151203815647"}}, "geometry": {"type": "Point", "coordinates": [-52.03431614069746, -75.27401301367044]}}, {"type": "Feature", "properties": {"norad_id": 37387, "name": "RESOURCESAT-2", "group": "resource", "lat": -72.9088867580089, "lon": -168.3012244585888, "alt_km": 832.0311132011229, "timestamp": "2025-12-04T07:39:35.827268+00:00", "meta": {"OBJECT_NAME": "RESOURCESAT-2", "OBJECT_ID": "2011-015A", "EPOCH": "2025-12-03T23:42:22.532256", "MEAN_MOTION": 14.21591773, "ECCENTRICITY": 0.0006765, "INCLINATION": 98.7889, "RA_OF_ASC_NODE": 41.5785, "ARG_OF_PERICENTER": 65.1377, "MEAN_ANOMALY": 295.0503, "EPHEMERIS_TYPE": 0, "CLASSIFICATION_TYPE": "U", "NORAD_CAT_ID": 37387, "ELEMENT_SET_NO": 999, "REV_AT_EPOCH": 75844, "BSTAR": 0.00016650446, "MEAN_MOTION_DOT": 3.21e-06, "MEAN_MOTION_DDOT": 0}, "tle": {"line1": "1 37387U 11015A   25337.98776079  .00000321  00000+0  16650-3 0  9995", "line2": "2 37387  98.7889  41.5785 0006765  65.1377 295.0503 14.21591773758444"}}, "geometry": {"type": "Point", "coordinates": [-168.3012244585888, -72.9088867580089]}}, {"type": "Feature", "properties": {"norad_id": 37781, "name": "HAIYANG-2A", "group": "resource", "lat": 22.255214875249703, "lon": 163.2440678408276, "alt_km": 967.0389347455093, "timestamp": "2025-12-04T07:39:35.827278+00:00", "meta": {"OBJECT_NAME": "HAIYANG-2A", "OBJECT_ID": "2011-043A", "EPOCH": "2025-12-03T23:56:00.582144", "MEAN_MOTION": 13.78834259, "ECCENTRICITY": 0.00016456, "INCLINATION": 99.3377, "RA_OF_ASC_NODE": 339.0665, "ARG_OF_PERICENTER": 95.783, "MEAN_ANOMALY": 264.3509, "EPHEMERIS_TYPE": 0, "CLASSIFICATION_TYPE": "U", "NORAD_CAT_ID": 37781, "ELEMENT_SET_NO": 999, "REV_AT_EPOCH": 71978, "BSTAR": 6.3593184e-05, "MEAN_MOTION_DOT": 2.1e-07, "MEAN_MOTION_DDOT": 0}, "tle": {"line1": "1 37781U 11043A   25337.99722896  .00000021  00000+0  63593-4 0  9999", "line2": "2 37781  99.3377 339.0665 0001645  95.7830 264.3509 13.78834259719787"}}, "geometry": {"type": "Point", "coordinates": [163.2440678408276, 22.255214875249703]}}, {"type": "Feature", "properties": {"norad_id": 37791, "name": "RASAT", "group": "resource", "lat": 78.2545287657494, "lon": -69.29688684831049, "alt_km": 645.1742727919318, "timestamp": "2025-12-04T07:39:35.827287+00:00", "meta": {"OBJECT_NAME": "RASAT", "OBJECT_ID": "2011-044D", "EPOCH": "2025-12-03T23:33:08.849952", "MEAN_MOTION": 14.6789038, "ECCENTRICITY": 0.00219618, "INCLINATION": 98.0656, "RA_OF_ASC_NODE": 67.3691, "ARG_OF_PERICENTER": 91.3734, "MEAN_ANOMALY": 23.0694, "EPHEMERIS_TYPE": 0, "CLASSIFICATION_TYPE": "U", "NORAD_CAT_ID": 37791, "ELEMENT_SET_NO": 999, "REV_AT_EPOCH": 76454, "BSTAR": 0.00022632648, "MEAN_MOTION_DOT": 1.249e-05, "MEAN_MOTION_DDOT": 0}, "tle": {"line1": "1 37791U 11044D   25337.98135243  .00001249  00000+0  22633-3 0  9996", "line2": "2 37791  98.0656  67.3691 0021961  91.3734  23.0694 14.67890380764547"}}, "geometry": {"type": "Point", "coordinates": [-69.29688684831049, 78.2545287657494]}}, {"type": "Feature", "properties": {"norad_id": 37841, "name": "SRMSAT", "group": "resource", "lat": 10.781265800994888, "lon": -169.45553156739285, "alt_km": 858.8074765253532, "timestamp": "2025-12-04T07:39:35.827297+00:00", "meta": {"OBJECT_NAME": "SRMSAT", "OBJECT_ID": "2011-058D", "EPOCH": "2025-12-03T21:51:18.054432", "MEAN_MOTION": 14.11506789, "ECCENTRICITY": 0.00117262, "INCLINATION": 19.9698, "RA_OF_ASC_NODE": 161.3894, "ARG_OF_PERICENTER": 215.5538, "MEAN_ANOMALY": 257.2435, "EPHEMERIS_TYPE": 0, "CLASSIFICATION_TYPE": "U", "NORAD_CAT_ID": 37841, "ELEMENT_SET_NO": 999, "REV_AT_EPOCH": 73019, "BSTAR": 0.00015323862, "MEAN_MOTION_DOT": 5.47e-06, "MEAN_MOTION_DDOT": 0}, "tle": {"line1": "1 37841U 11058D   25337.91062563  .00000547  00000+0  15324-3 0  9993", "line2": "2 37841  19.9698 161.3894 0011726 215.5538 257.2435 14.11506789730195"}}, "geometry": {"type": "Point", "coordinates": [-169.45553156739285, 10.781265800994888]}}, {"type": "Feature", "properties": {"norad_id": 38012, "name": "PLEIADES 1A", "group": "resource", "lat": 3.3712571223829606, "lon": -128.29701408484266, "alt_km": 700.5062387643738, "timestamp": "2025-12-04T07:39:35.827307+00:00", "meta": {"OBJECT_NAME": "PLEIADES 1A", "OBJECT_ID": "2011-076F", "EPOCH": "2025-12-04T00:49:47.280000", "MEAN_MOTION": 14.58548492, "ECCENTRICITY": 0.0001402, "INCLINATION": 98.1833, "RA_OF_ASC_NODE": 50.9371, "ARG_OF_PERICENTER": 80.9745, "MEAN_ANOMALY": 42.0538, "EPHEMERIS_TYPE": 0, "CLASSIFICATION_TYPE": "U", "NORAD_CAT_ID": 38012, "ELEMENT_SET_NO": 999, "REV_AT_EPOCH": 74354, "BSTAR": 0.00019361087, "MEAN_MOTION_DOT": 8.54e-06, "MEAN_MOTION_DDOT": 0}, "tle": {"line1": "1 38012U 11076F   25338.03457500  .00000854  00000+0  19361-3 0  9993", "line2": "2 38012  98.1833  50.9371 0001402  80.9745  42.0538 14.58548492743548"}}, "geometry": {"type": "Point", "coordinates": [-128.29701408484266, 3.3712571223829606]}}, {"type": "Feature", "properties": {"norad_id": 38038, "name": "ZIYUAN 1-02C (ZY 1-02C)", "group": "resource", "lat": -13.785558235278941, "lon": 46.57403134485062, "alt_km": 774.5269445490585, "timestamp": "2025-12-04T07:39:35.827316+00:00", "meta": {"OBJECT_NAME": "ZIYUAN 1-02C (ZY 1-02C)", "OBJECT_ID": "2011-079A", "EPOCH": "2025-12-03T23:56:46.153824", "MEAN_MOTION": 14.37996855, "ECCENTRICITY": 0.00068076, "INCLINATION": 98.4345, "RA_OF_ASC_NODE": 44.1722, "ARG_OF_PERICENTER": 162.668, "MEAN_ANOMALY": 320.6146, "EPHEMERIS_TYPE": 0, "CLASSIFICATION_TYPE": "U", "NORAD_CAT_ID": 38038, "ELEMENT_SET_NO": 999, "REV_AT_EPOCH": 73115, "BSTAR": 0.00033327669, "MEAN_MOTION_DOT": 9.65e-06, "MEAN_MOTION_DDOT": 0}, "tle": {"line1": "1 38038U 11079A   25337.99775641  .00000965  00000+0  33328-3 0  9999", "line2": "2 38038  98.4345  44.1722 0006807 162.6680 320.6146 14.37996855731153"}}, "geometry": {"type": "Point", "coordinates": [46.57403134485062, -13.785558235278941]}}, {"type": "Feature", "properties": {"norad_id": 38046, "name": "ZIYUAN 3-1 (ZY 3-1)", "group": "resource", "lat": 5.266152404717082, "lon": -134.78501076771664, "alt_km": 371.25000727520546, "timestamp": "2025-12-04T07:39:35.827326+00:00", "meta": {"OBJECT_NAME": "ZIYUAN 3-1 (ZY 3-1)", "OBJECT_ID": "2012-001A", "EPOCH": "2025-12-03T23:15:14.304384", "MEAN_MOTION": 15.66889682, "ECCENTRICITY": 0.00021636, "INCLINATION": 97.1776, "RA_OF_ASC_NODE": 44.1917, "ARG_OF_PERICENTER": 29.8822, "MEAN_ANOMALY": 330.2562, "EPHEMERIS_TYPE": 0, "CLASSIFICATION_TYPE": "U", "NORAD_CAT_ID": 38046, "ELEMENT_SET_NO": 999, "REV_AT_EPOCH": 77359, "BSTAR": 0.0010986213, "MEAN_MOTION_DOT": 0.00117472, "MEAN_MOTION_DDOT": 0}, "tle": {"line1": "1 38046U 12001A   25337.96891556  .00117472  00000+0  10986-2 0  9991", "line2": "2 38046  97.1776  44.1917 0002163  29.8822 330.2562 15.66889682773590"}}, "geometry": {"type": "Point", "coordinates": [-134.78501076771664, 5.266152404717082]}}, {"type": "Feature", "properties": {"norad_id": 38338, "name": "ARIRANG-3 (KOMPSAT-3)", "group": "resource", "lat": -21.461619066097175, "lon": -63.85182705203051, "alt_km": 689.2426404956568, "timestamp": "2025-12-04T07:39:35.827336+00:00", "meta": {"OBJECT_NAME": "ARIRANG-3 (KOMPSAT-3)", "OBJECT_ID": "2012-025B", "EPOCH": "2025-12-03T23:32:39.808320", "MEAN_MOTION": 14.61693916, "ECCENTRICITY": 0.00059818, "INCLINATION": 98.3309, "RA_OF_ASC_NODE": 292.5051, "ARG_OF_PERICENTER": 6.3919, "MEAN_ANOMALY": 353.7357, "EPHEMERIS_TYPE": 0, "CLASSIFICATION_TYPE": "U", "NORAD_CAT_ID": 38338, "ELEMENT_SET_NO": 999, "REV_AT_EPOCH": 72282, "BSTAR": 0.00022714908, "MEAN_MOTION_DOT": 1.083e-05, "MEAN_MOTION_DDOT": 0}, "tle": {"line1": "1 38338U 12025B   25337.98101630  .00001083  00000+0  22715-3 0  9994", "line2": "2 38338  98.3309 292.5051 0005981   6.3919 353.7357 14.61693916722824"}}, "geometry": {"type": "Point", "coordinates": [-63.85182705203051, -21.461619066097175]}}, {"type": "Feature", "properties": {"norad_id": 38709, "name": "EXACTVIEW-1 (ADS-1B)", "group": "resource", "lat": 9.54166014815887, "lon": 85.01238569600692, "alt_km": 802.4982658683066, "timestamp": "2025-12-04T07:39:35.827346+00:00", "meta": {"OBJECT_NAME": "EXACTVIEW-1 (ADS-1B)", "OBJECT_ID": "2012-039C", "EPOCH": "2025-12-03T21:30:11.581632", "MEAN_MOTION": 14.2490219, "ECCENTRICITY": 0.0011127, "INCLINATION": 98.9636, "RA_OF_ASC_NODE": 86.1007, "ARG_OF_PERICENTER": 19.4867, "MEAN_ANOMALY": 340.6735, "EPHEMERIS_TYPE": 0, "CLASSIFICATION_TYPE": "U", "NORAD_CAT_ID": 38709, "ELEMENT_SET_NO": 999, "REV_AT_EPOCH": 69489, "BSTAR": 0.00014941384, "MEAN_MOTION_DOT": 3.03e-06, "MEAN_MOTION_DDOT": 0}, "tle": {"line1": "1 38709U 12039C   25337.89596738  .00000303  00000+0  14941-3 0  9994", "line2": "2 38709  98.9636  86.1007 0011127  19.4867 340.6735 14.24902190694895"}}, "geometry": {"type": "Point", "coordinates": [85.01238569600692, 9.54166014815887]}}]}